start=new Date('2021-11-23T00:00:00.000Z').valueOf();
sats=[{"MEAN_MOTION_DOT":"-0.00000107","GP_ID":"190264616","REF_FRAME":"TEME","MEAN_ANOMALY":"275.8453","ECCENTRICITY":"0.00012880","CENTER_NAME":"EARTH","TIME_SYSTEM":"UTC","OBJECT_ID":"2021-017AR","EPHEMERIS_TYPE":"0","COUNTRY_CODE":"US","MEAN_MOTION":"15.06397159","MEAN_MOTION_DDOT":"0.0000000000000","APOAPSIS":"548.114","INCLINATION":"53.0559","EPOCH":"2021-11-22T08:00:25.419456","BSTAR":"0.00001169500000","LAUNCH_DATE":"2021-03-04","DECAY_DATE":null,"TLE_LINE2":"2 47761  53.0559  52.2474 0001288  84.2683 275.8453 15.06397159 41340","SEMIMAJOR_AXIS":"6925.357","RA_OF_ASC_NODE":"52.2474","MEAN_ELEMENT_THEORY":"SGP4","ELEMENT_SET_NO":"999","PERIAPSIS":"546.330","SITE":"AFETR","NORAD_CAT_ID":"47761","CLASSIFICATION_TYPE":"U","FILE":"3221278","OBJECT_TYPE":"PAYLOAD","REV_AT_EPOCH":"4134","TLE_LINE1":"1 47761U 21017AR  21326.33362754 -.00000107  00000-0  11695-4 0  9998","PERIOD":"95.592","RCS_SIZE":"LARGE","OBJECT_NAME":"STARLINK-2179","ARG_OF_PERICENTER":"84.2683"},{"CLASSIFICATION_TYPE":"U","NORAD_CAT_ID":"47762","SITE":"AFETR","MEAN_ELEMENT_THEORY":"SGP4","PERIAPSIS":"546.182","ELEMENT_SET_NO":"999","SEMIMAJOR_AXIS":"6925.347","RA_OF_ASC_NODE":"65.6513","OBJECT_NAME":"STARLINK-2180","ARG_OF_PERICENTER":"77.4678","RCS_SIZE":"LARGE","PERIOD":"95.592","TLE_LINE1":"1 47762U 21017AS  21326.69067809  .00000116  00000-0  26718-4 0  9992","REV_AT_EPOCH":"4055","OBJECT_TYPE":"PAYLOAD","FILE":"3221475","EPHEMERIS_TYPE":"0","COUNTRY_CODE":"US","OBJECT_ID":"2021-017AS","TIME_SYSTEM":"UTC","CENTER_NAME":"EARTH","ECCENTRICITY":"0.00014870","REF_FRAME":"TEME","MEAN_ANOMALY":"282.6477","GP_ID":"190270200","MEAN_MOTION_DOT":"0.00000116","TLE_LINE2":"2 47762  53.0554  65.6513 0001487  77.4678 282.6477 15.06400542 40552","BSTAR":"0.00002671800000","LAUNCH_DATE":"2021-03-04","DECAY_DATE":null,"EPOCH":"2021-11-22T16:34:34.586976","INCLINATION":"53.0554","MEAN_MOTION_DDOT":"0.0000000000000","APOAPSIS":"548.242","MEAN_MOTION":"15.06400542"},{"SITE":"AFETR","PERIAPSIS":"546.462","ELEMENT_SET_NO":"999","MEAN_ELEMENT_THEORY":"SGP4","CLASSIFICATION_TYPE":"U","NORAD_CAT_ID":"47763","SEMIMAJOR_AXIS":"6925.363","RA_OF_ASC_NODE":"56.9852","OBJECT_NAME":"STARLINK-2181","ARG_OF_PERICENTER":"85.4700","RCS_SIZE":"LARGE","OBJECT_TYPE":"PAYLOAD","FILE":"3221384","PERIOD":"95.592","REV_AT_EPOCH":"4064","TLE_LINE1":"1 47763U 21017AT  21326.37558381  .00000687  00000-0  64995-4 0  9990","TIME_SYSTEM":"UTC","CENTER_NAME":"EARTH","COUNTRY_CODE":"US","EPHEMERIS_TYPE":"0","OBJECT_ID":"2021-017AT","MEAN_ANOMALY":"274.6415","REF_FRAME":"TEME","GP_ID":"190267975","MEAN_MOTION_DOT":"0.00000687","ECCENTRICITY":"0.00011070","TLE_LINE2":"2 47763  53.0691  56.9852 0001107  85.4700 274.6415 15.06395137 40644","DECAY_DATE":null,"LAUNCH_DATE":"2021-03-04","BSTAR":"0.00006499500000","APOAPSIS":"547.995","MEAN_MOTION_DDOT":"0.0000000000000","MEAN_MOTION":"15.06395137","EPOCH":"2021-11-22T09:00:50.441184","INCLINATION":"53.0691"},{"RA_OF_ASC_NODE":"66.8955","SEMIMAJOR_AXIS":"6925.332","SITE":"AFETR","MEAN_ELEMENT_THEORY":"SGP4","ELEMENT_SET_NO":"999","PERIAPSIS":"546.360","CLASSIFICATION_TYPE":"U","NORAD_CAT_ID":"47764","OBJECT_TYPE":"PAYLOAD","FILE":"3221278","PERIOD":"95.592","TLE_LINE1":"1 47764U 21017AU  21326.41149166  .00002675  00000-0  19839-3 0  9998","REV_AT_EPOCH":"4119","OBJECT_NAME":"STARLINK-2182","ARG_OF_PERICENTER":"80.2697","RCS_SIZE":"LARGE","REF_FRAME":"TEME","MEAN_ANOMALY":"279.8428","GP_ID":"190263865","MEAN_MOTION_DOT":"0.00002675","ECCENTRICITY":"0.00012080","TIME_SYSTEM":"UTC","CENTER_NAME":"EARTH","EPHEMERIS_TYPE":"0","COUNTRY_CODE":"US","OBJECT_ID":"2021-017AU","MEAN_MOTION_DDOT":"0.0000000000000","APOAPSIS":"548.033","MEAN_MOTION":"15.06405449","EPOCH":"2021-11-22T09:52:32.879424","INCLINATION":"53.0574","TLE_LINE2":"2 47764  53.0574  66.8955 0001208  80.2697 279.8428 15.06405449 41199","BSTAR":"0.00019839000000","LAUNCH_DATE":"2021-03-04","DECAY_DATE":null},{"SEMIMAJOR_AXIS":"6925.380","RA_OF_ASC_NODE":"45.8330","PERIAPSIS":"546.227","ELEMENT_SET_NO":"999","MEAN_ELEMENT_THEORY":"SGP4","SITE":"AFETR","NORAD_CAT_ID":"47765","CLASSIFICATION_TYPE":"U","FILE":"3221476","OBJECT_TYPE":"PAYLOAD","REV_AT_EPOCH":"4083","TLE_LINE1":"1 47765U 21017AV  21326.64554871  .00000068  00000-0  23474-4 0  9992","PERIOD":"95.593","RCS_SIZE":"LARGE","OBJECT_NAME":"STARLINK-2183","ARG_OF_PERICENTER":"72.2040","GP_ID":"190269884","MEAN_MOTION_DOT":"0.00000068","REF_FRAME":"TEME","MEAN_ANOMALY":"287.9109","ECCENTRICITY":"0.00014700","CENTER_NAME":"EARTH","TIME_SYSTEM":"UTC","OBJECT_ID":"2021-017AV","COUNTRY_CODE":"US","EPHEMERIS_TYPE":"0","MEAN_MOTION":"15.06389659","APOAPSIS":"548.263","MEAN_MOTION_DDOT":"0.0000000000000","INCLINATION":"53.0570","EPOCH":"2021-11-22T15:29:35.408544","DECAY_DATE":null,"BSTAR":"0.00002347400000","LAUNCH_DATE":"2021-03-04","TLE_LINE2":"2 47765  53.0570  45.8330 0001470  72.2040 287.9109 15.06389659 40834"},{"APOAPSIS":"548.063","MEAN_MOTION_DDOT":"0.0000000000000","MEAN_MOTION":"15.06396377","EPOCH":"2021-11-22T13:30:10.432800","INCLINATION":"53.0569","TLE_LINE2":"2 47766  53.0569  66.2144 0001211  82.3519 277.7608 15.06396377 40532","DECAY_DATE":null,"LAUNCH_DATE":"2021-03-04","BSTAR":"0.00002259200000","MEAN_ANOMALY":"277.7608","REF_FRAME":"TEME","GP_ID":"190270207","MEAN_MOTION_DOT":"0.00000055","ECCENTRICITY":"0.00012110","TIME_SYSTEM":"UTC","CENTER_NAME":"EARTH","COUNTRY_CODE":"US","EPHEMERIS_TYPE":"0","OBJECT_ID":"2021-017AW","OBJECT_TYPE":"PAYLOAD","FILE":"3221476","PERIOD":"95.592","TLE_LINE1":"1 47766U 21017AW  21326.56262075  .00000055  00000-0  22592-4 0  9992","REV_AT_EPOCH":"4053","ARG_OF_PERICENTER":"82.3519","OBJECT_NAME":"STARLINK-2184","RCS_SIZE":"LARGE","SEMIMAJOR_AXIS":"6925.360","RA_OF_ASC_NODE":"66.2144","SITE":"AFETR","PERIAPSIS":"546.386","ELEMENT_SET_NO":"999","MEAN_ELEMENT_THEORY":"SGP4","CLASSIFICATION_TYPE":"U","NORAD_CAT_ID":"47766"},{"DECAY_DATE":null,"BSTAR":"0.00003812700000","LAUNCH_DATE":"2021-03-04","TLE_LINE2":"2 47767  53.0570  52.2917 0001265  88.5292 271.5842 15.06400344 41390","INCLINATION":"53.0570","EPOCH":"2021-11-22T07:44:29.983200","MEAN_MOTION":"15.06400344","APOAPSIS":"548.089","MEAN_MOTION_DDOT":"0.0000000000000","OBJECT_ID":"2021-017AX","COUNTRY_CODE":"US","EPHEMERIS_TYPE":"0","CENTER_NAME":"EARTH","TIME_SYSTEM":"UTC","ECCENTRICITY":"0.00012650","MEAN_MOTION_DOT":"0.00000287","GP_ID":"190263615","REF_FRAME":"TEME","MEAN_ANOMALY":"271.5842","RCS_SIZE":"LARGE","ARG_OF_PERICENTER":"88.5292","OBJECT_NAME":"STARLINK-2185","REV_AT_EPOCH":"4139","TLE_LINE1":"1 47767U 21017AX  21326.32256925  .00000287  00000-0  38127-4 0  9992","PERIOD":"95.592","FILE":"3221278","OBJECT_TYPE":"PAYLOAD","NORAD_CAT_ID":"47767","CLASSIFICATION_TYPE":"U","PERIAPSIS":"546.336","ELEMENT_SET_NO":"999","MEAN_ELEMENT_THEORY":"SGP4","SITE":"AFETR","SEMIMAJOR_AXIS":"6925.348","RA_OF_ASC_NODE":"52.2917"},{"RCS_SIZE":"LARGE","ARG_OF_PERICENTER":"69.2624","OBJECT_NAME":"STARLINK-2189","REV_AT_EPOCH":"4116","TLE_LINE1":"1 47768U 21017AY  21326.39212882 -.00000279  00000-0  18898-6 0  9991","PERIOD":"95.592","FILE":"3221278","OBJECT_TYPE":"PAYLOAD","NORAD_CAT_ID":"47768","CLASSIFICATION_TYPE":"U","PERIAPSIS":"546.333","ELEMENT_SET_NO":"999","MEAN_ELEMENT_THEORY":"SGP4","SITE":"AFETR","RA_OF_ASC_NODE":"66.9943","SEMIMAJOR_AXIS":"6925.356","DECAY_DATE":null,"BSTAR":"0.00000018898000","LAUNCH_DATE":"2021-03-04","TLE_LINE2":"2 47768  53.0551  66.9943 0001282  69.2624 290.8502 15.06397476 41168","INCLINATION":"53.0551","EPOCH":"2021-11-22T09:24:39.930048","MEAN_MOTION":"15.06397476","APOAPSIS":"548.109","MEAN_MOTION_DDOT":"0.0000000000000","OBJECT_ID":"2021-017AY","COUNTRY_CODE":"US","EPHEMERIS_TYPE":"0","CENTER_NAME":"EARTH","TIME_SYSTEM":"UTC","ECCENTRICITY":"0.00012820","MEAN_MOTION_DOT":"-0.00000279","GP_ID":"190264366","REF_FRAME":"TEME","MEAN_ANOMALY":"290.8502"},{"SEMIMAJOR_AXIS":"6925.351","RA_OF_ASC_NODE":"31.1710","CLASSIFICATION_TYPE":"U","NORAD_CAT_ID":"47769","SITE":"AFETR","MEAN_ELEMENT_THEORY":"SGP4","ELEMENT_SET_NO":"999","PERIAPSIS":"546.326","PERIOD":"95.592","REV_AT_EPOCH":"4102","TLE_LINE1":"1 47769U 21017AZ  21326.57137615  .00001491  00000-0  11898-3 0  9998","OBJECT_TYPE":"PAYLOAD","FILE":"3221488","ARG_OF_PERICENTER":"70.0552","OBJECT_NAME":"STARLINK-2192","RCS_SIZE":"LARGE","ECCENTRICITY":"0.00012850","MEAN_ANOMALY":"290.0575","REF_FRAME":"TEME","MEAN_MOTION_DOT":"0.00001491","GP_ID":"190270616","EPHEMERIS_TYPE":"0","COUNTRY_CODE":"US","OBJECT_ID":"2021-017AZ","TIME_SYSTEM":"UTC","CENTER_NAME":"EARTH","EPOCH":"2021-11-22T13:42:46.899360","INCLINATION":"53.0551","MEAN_MOTION_DDOT":"0.0000000000000","APOAPSIS":"548.106","MEAN_MOTION":"15.06399169","TLE_LINE2":"2 47769  53.0551  31.1710 0001285  70.0552 290.0575 15.06399169 41026","LAUNCH_DATE":"2021-03-04","BSTAR":"0.00011898000000","DECAY_DATE":null},{"COUNTRY_CODE":"US","EPHEMERIS_TYPE":"0","OBJECT_ID":"2021-017BA","TIME_SYSTEM":"UTC","CENTER_NAME":"EARTH","ECCENTRICITY":"0.00013560","REF_FRAME":"TEME","MEAN_ANOMALY":"287.9094","MEAN_MOTION_DOT":"0.00000039","GP_ID":"190233029","TLE_LINE2":"2 47770  53.0564  50.3196 0001356  72.2042 287.9094 15.06396354 41338","DECAY_DATE":null,"BSTAR":"0.00002150800000","LAUNCH_DATE":"2021-03-04","EPOCH":"2021-11-21T15:29:50.387712","INCLINATION":"53.0564","APOAPSIS":"548.164","MEAN_MOTION_DDOT":"0.0000000000000","MEAN_MOTION":"15.06396354","CLASSIFICATION_TYPE":"U","NORAD_CAT_ID":"47770","SITE":"AFETR","ELEMENT_SET_NO":"999","PERIAPSIS":"546.286","MEAN_ELEMENT_THEORY":"SGP4","SEMIMAJOR_AXIS":"6925.360","RA_OF_ASC_NODE":"50.3196","OBJECT_NAME":"STARLINK-2193","ARG_OF_PERICENTER":"72.2042","RCS_SIZE":"LARGE","PERIOD":"95.592","TLE_LINE1":"1 47770U 21017BA  21325.64572208  .00000039  00000-0  21508-4 0  9995","REV_AT_EPOCH":"4133","OBJECT_TYPE":"PAYLOAD","FILE":"3220934"}];
